{
    "links": {
        "self": "http://www.neowsapp.com/rest/v1/neo/3523945?api_key=iIulBulltgU6a56xZRHN4H3l9WmuAYTsLGpBGhQ2"
    },
    "id": "3523945",
    "neo_reference_id": "3523945",
    "name": "(2010 KQ10)",
    "designation": "2010 KQ10",
    "nasa_jpl_url": "http://ssd.jpl.nasa.gov/sbdb.cgi?sstr=3523945",
    "absolute_magnitude_h": 21.4,
    "estimated_diameter": {
        "kilometers": {
            "estimated_diameter_min": 0.1394938229,
            "estimated_diameter_max": 0.3119176705
        },
        "meters": {
            "estimated_diameter_min": 139.4938229344,
            "estimated_diameter_max": 311.9176705226
        },
        "miles": {
            "estimated_diameter_min": 0.0866774163,
            "estimated_diameter_max": 0.1938165949
        },
        "feet": {
            "estimated_diameter_min": 457.6569140361,
            "estimated_diameter_max": 1023.3519701574
        }
    },
    "is_potentially_hazardous_asteroid": true,
    "close_approach_data": [
        {
            "close_approach_date": "1966-05-29",
            "close_approach_date_full": "1966-May-29 19:43",
            "epoch_date_close_approach": -113372220000,
            "relative_velocity": {
                "kilometers_per_second": "22.1074529092",
                "kilometers_per_hour": "79586.8304732863",
                "miles_per_hour": "49452.1614126928"
            },
            "miss_distance": {
                "astronomical": "0.212140277",
                "lunar": "82.522567753",
                "kilometers": "31735733.58040999",
                "miles": "19719670.433598262"
            },
            "orbiting_body": "Earth"
        },
        {
            "close_approach_date": "2010-04-13",
            "close_approach_date_full": "2010-Apr-13 12:15",
            "epoch_date_close_approach": 1271160900000,
            "relative_velocity": {
                "kilometers_per_second": "12.6260018263",
                "kilometers_per_hour": "45453.6065745925",
                "miles_per_hour": "28243.1034851961"
            },
            "miss_distance": {
                "astronomical": "0.1881096652",
                "lunar": "73.1746597628",
                "kilometers": "28140805.240333124",
                "miles": "17485885.5450561512"
            },
            "orbiting_body": "Earth"
        },
        {
            "close_approach_date": "2022-08-26",
            "close_approach_date_full": "2022-Aug-26 05:48",
            "epoch_date_close_approach": 1661492880000,
            "relative_velocity": {
                "kilometers_per_second": "8.4518319235",
                "kilometers_per_hour": "30426.5949246464",
                "miles_per_hour": "18905.902829706"
            },
            "miss_distance": {
                "astronomical": "1.8870749453",
                "lunar": "734.0721537217",
                "kilometers": "282302392.347246511",
                "miles": "175414572.5227674118"
            },
            "orbiting_body": "Juptr"
        }
    ],
    "orbital_data": {
        "orbit_id": "11",
        "orbit_determination_date": "2017-04-06 08:57:26",
        "first_observation_date": "2010-05-20",
        "last_observation_date": "2010-06-12",
        "data_arc_in_days": 23,
        "observations_used": 30,
        "orbit_uncertainty": "7",
        "minimum_orbit_intersection": ".020927",
        "jupiter_tisserand_invariant": "3.193",
        "epoch_osculation": "2459000.5",
        "eccentricity": ".6666454317370671",
        "semi_major_axis": "2.372874103456063",
        "inclination": "6.675791973866617",
        "ascending_node_longitude": "244.9619411479327",
        "orbital_period": "1335.089781306483",
        "perihelion_distance": ".7910084222998899",
        "perihelion_argument": "286.5802326794131",
        "aphelion_distance": "3.954739784612237",
        "perihelion_time": "2459281.005346878056",
        "mean_anomaly": "284.3631954269907",
        "mean_motion": ".2696447872200129",
        "equinox": "J2000",
        "orbit_class": {
            "orbit_class_type": "APO",
            "orbit_class_description": "Near-Earth asteroid orbits which cross the Earth’s orbit similar to that of 1862 Apollo",
            "orbit_class_range": "a (semi-major axis) > 1.0 AU; q (perihelion) < 1.017 AU"
        }
    },
    "is_sentry_object": false
}